FLOCK 3P-5              
1 41971U 17008Z   17345.76428249  .00002003  00000-0  86736-4 0  9999
2 41971  97.4757  46.5348 0006842 295.5925  64.4605 15.23572808 45331
